NORAD_CAT_ID,OBJECT_NAME,OBJECT_TYPE,EPOCH,MEAN_MOTION,ECCENTRICITY,INCLINATION,RA_OF_ASC_NODE,ARG_OF_PERICENTER,MEAN_ANOMALY,BSTAR,MEAN_MOTION_DOT,MEAN_MOTION_DDOT,TLE_LINE0,TLE_LINE1,TLE_LINE2,SEMIMAJOR_AXIS,PERIOD,APOGEE,PERIGEE,DECAYED
53608.0,STARLINK-4647,PAYLOAD,2024-05-29 13:06:07,15.08835661,7.67e-05,53.2177,268.4348,103.4155,256.6923,1.9886e-05,2.9e-07,0.0,0 STARLINK-4647,1 53608U 22104W   24150.54591563  .00000029  00000-0  19886-4 0  9998,2 53608  53.2177 268.4348 0000767 103.4155 256.6923 15.08835661 97061,6917.894,95.438,540.289,539.228,0.0
53608.0,STARLINK-4647,PAYLOAD,2024-05-29 14:41:30,15.08836328,7.43e-05,53.2175,268.1357,96.881,263.2267,2.3769e-05,9.1e-07,0.0,0 STARLINK-4647,1 53608U 22104W   24150.61215511  .00000091  00000-0  23769-4 0  9996,2 53608  53.2175 268.1357 0000743  96.8810 263.2267 15.08836328 97643,6917.892,95.438,540.271,539.243,0.0
53608.0,STARLINK-4647,PAYLOAD,2024-05-29 17:52:16,15.08836583,7.4e-05,53.2175,267.5403,96.5704,263.5372,2.4134e-05,9.6e-07,0.0,0 STARLINK-4647,1 53608U 22104W   24150.74463502  .00000096  00000-0  24134-4 0  9997,2 53608  53.2175 267.5403 0000740  96.5704 263.5372 15.08836583 97669,6917.891,95.438,540.268,539.244,0.0
53608.0,STARLINK-4647,PAYLOAD,2024-05-30 12:56:53,15.08840344,7.69e-05,53.2176,263.9725,81.8766,278.2313,9.7013e-05,1.257e-05,0.0,0 STARLINK-4647,1 53608U 22104W   24151.53951273  .00001257  00000-0  97013-4 0  9998,2 53608  53.2176 263.9725 0000769  81.8766 278.2313 15.08840344 97784,6917.879,95.438,540.276,539.212,0.0
53608.0,STARLINK-4647,PAYLOAD,2024-05-31 12:47:41,15.08839046,7.2e-05,53.217,259.5123,81.9291,278.1783,6.5236e-05,7.51e-06,0.0,0 STARLINK-4647,1 53608U 22104W   24152.53311557  .00000751  00000-0  65236-4 0  9994,2 53608  53.2170 259.5123 0000720  81.9291 278.1783 15.08839046 97363,6917.883,95.438,540.246,539.25,0.0
53608.0,STARLINK-4647,PAYLOAD,2024-05-31 17:33:50,15.08838421,7.48e-05,53.2167,258.6195,66.8845,293.2226,6.3738e-05,7.27e-06,0.0,0 STARLINK-4647,1 53608U 22104W   24152.73183609  .00000727  00000-0  63738-4 0  9999,2 53608  53.2167 258.6195 0000748  66.8845 293.2226 15.08838421 97967,6917.885,95.438,540.268,539.233,0.0
53608.0,STARLINK-4647,PAYLOAD,2024-05-31 23:55:22,15.08845339,7.77e-05,53.2174,257.4312,77.1345,282.9734,9.4656e-05,1.219e-05,0.0,0 STARLINK-4647,1 53608U 22104W   24152.99678982  .00001219  00000-0  94656-4 0  9990,2 53608  53.2174 257.4312 0000777  77.1345 282.9734 15.08845339 97432,6917.864,95.437,540.267,539.192,0.0
53608.0,STARLINK-4647,PAYLOAD,2024-06-01 12:38:28,15.08832698,9.65e-05,53.2172,255.0526,83.1868,276.9234,-4.3416e-05,-9.78e-06,0.0,0 STARLINK-4647,1 53608U 22104W   24153.52672427 -.00000978  00000-0 -43416-4 0  9999,2 53608  53.2172 255.0526 0000965  83.1868 276.9234 15.08832698 97518,6917.903,95.438,540.435,539.1,0.0
53608.0,STARLINK-4647,PAYLOAD,2024-06-01 14:13:51,15.08834852,9.01e-05,53.2171,254.7557,81.5827,278.5267,-2.236e-05,-6.43e-06,0.0,0 STARLINK-4647,1 53608U 22104W   24153.59296269 -.00000643  00000-0 -22360-4 0  9996,2 53608  53.2171 254.7557 0000901  81.5827 278.5267 15.08834852 98096,6917.896,95.438,540.384,539.138,0.0
53608.0,STARLINK-4647,PAYLOAD,2024-06-01 23:46:09,15.08843529,7.9e-05,53.216,252.9686,63.4991,296.6082,8.0234e-05,9.9e-06,0.0,0 STARLINK-4647,1 53608U 22104W   24153.99039338  .00000990  00000-0  80234-4 0  9999,2 53608  53.2160 252.9686 0000790  63.4991 296.6082 15.08843529 97584,6917.87,95.437,540.281,539.188,0.0
53608.0,STARLINK-4647,PAYLOAD,2024-06-02 12:29:15,15.08835184,8.16e-05,53.2166,250.5924,82.352,277.7564,5.3711e-05,5.67e-06,0.0,0 STARLINK-4647,1 53608U 22104W   24154.52032026  .00000567  00000-0  53711-4 0  9996,2 53608  53.2166 250.5924 0000816  82.3520 277.7564 15.08835184 97668,6917.895,95.438,540.325,539.196,0.0
53608.0,STARLINK-4647,PAYLOAD,2024-06-02 23:36:56,15.0884819,7.13e-05,53.2168,248.51,84.6634,275.4439,7.4805e-05,9.03e-06,0.0,0 STARLINK-4647,1 53608U 22104W   24154.98399033  .00000903  00000-0  74805-4 0  9991,2 53608  53.2168 248.5100 0000713  84.6634 275.4439 15.08848190 97735,6917.855,95.437,540.214,539.227,0.0
53608.0,STARLINK-4647,PAYLOAD,2024-06-03 12:20:02,15.08839211,8.02e-05,53.2162,246.1285,86.3355,273.7728,3.8729e-05,3.29e-06,0.0,0 STARLINK-4647,1 53608U 22104W   24155.51391889  .00000329  00000-0  38729-4 0  9999,2 53608  53.2162 246.1285 0000802  86.3355 273.7728 15.08839211 97810,6917.883,95.438,540.303,539.193,0.0
53608.0,STARLINK-4647,PAYLOAD,2024-06-03 23:27:43,15.08851717,9.3e-05,53.2167,244.0481,85.2192,274.8907,9.8678e-05,1.284e-05,0.0,0 STARLINK-4647,1 53608U 22104W   24155.97758824  .00001284  00000-0  98678-4 0  9995,2 53608  53.2167 244.0481 0000930  85.2192 274.8907 15.08851717 97882,6917.845,95.437,540.353,539.066,0.0
53608.0,STARLINK-4647,PAYLOAD,2024-06-04 12:10:49,15.08844979,0.0001393,53.2175,241.6714,81.7316,278.3834,0.00012081,1.636e-05,0.0,0 STARLINK-4647,1 53608U 22104W   24156.50751338  .00001636  00000-0  12081-3 0  9992,2 53608  53.2175 241.6714 0001393  81.7316 278.3834 15.08844979 97965,6917.865,95.437,540.694,538.767,0.0
53608.0,STARLINK-4647,PAYLOAD,2024-06-04 15:21:35,15.08847017,0.0001111,53.2165,241.0744,92.988,267.1239,4.4467e-05,4.2e-06,0.0,0 STARLINK-4647,1 53608U 22104W   24156.63999287  .00000420  00000-0  44467-4 0  9997,2 53608  53.2165 241.0744 0001111  92.9880 267.1239 15.08847017 98556,6917.859,95.437,540.493,538.955,0.0
53608.0,STARLINK-4647,PAYLOAD,2024-06-05 12:01:37,15.08833625,0.0001018,53.2172,237.209,105.0129,255.0976,-7.1825e-05,-1.43e-05,0.0,0 STARLINK-4647,1 53608U 22104W   24157.50112414 -.00001430  00000-0 -71825-4 0  9995,2 53608  53.2172 237.2090 0001018 105.0129 255.0976 15.08833625 98119,6917.9,95.438,540.469,539.061,0.0
53608.0,STARLINK-4647,PAYLOAD,2024-06-05 15:12:23,15.08832951,0.0001021,53.2161,236.6137,112.1455,247.9646,-2.7517e-05,-7.26e-06,0.0,0 STARLINK-4647,1 53608U 22104W   24157.63360356 -.00000726  00000-0 -27517-4 0  9995,2 53608  53.2161 236.6137 0001021 112.1455 247.9646 15.08832951 98707,6917.902,95.438,540.473,539.061,0.0
53608.0,STARLINK-4647,PAYLOAD,2024-06-06 11:52:23,15.08838039,0.0001031,53.2177,232.7507,81.9898,278.1211,0.00015399,2.164e-05,0.0,0 STARLINK-4647,1 53608U 22104W   24158.49472031  .00002164  00000-0  15399-3 0  9994,2 53608  53.2177 232.7507 0001031  81.9898 278.1211 15.08838039 98265,6917.886,95.438,540.465,539.038,0.0
53608.0,STARLINK-4647,PAYLOAD,2024-06-07 08:32:22,15.08886406,0.000157,53.2162,228.8849,67.9496,292.1663,-0.0014593,-0.00023467,0.0,0 STARLINK-4647,1 53608U 22104W   24159.35581290 -.00023467  00000-0 -14593-2 0  9993,2 53608  53.2162 228.8849 0001570  67.9496 292.1663 15.08886406 98392,6917.739,95.435,540.69,538.517,0.0
53608.0,STARLINK-4647,PAYLOAD,2024-06-07 14:53:57,15.08830153,0.0001065,53.2156,227.694,75.832,284.279,0.00028523,4.253e-05,0.0,0 STARLINK-4647,1 53608U 22104W   24159.62080918  .00004253  00000-0  28523-3 0  9993,2 53608  53.2156 227.6940 0001065  75.8320 284.2790 15.08830153 98433,6917.91,95.438,540.512,539.039,0.0
53608.0,STARLINK-4647,PAYLOAD,2024-06-08 05:12:25,15.08839975,0.0001083,53.215,225.0177,87.4857,272.6259,0.00018354,2.634e-05,0.0,0 STARLINK-4647,1 53608U 22104W   24160.21696375  .00002634  00000-0  18354-3 0  9992,2 53608  53.2150 225.0177 0001083  87.4857 272.6259 15.08839975 98527,6917.88,95.438,540.495,538.996,0.0
53608.0,STARLINK-4647,PAYLOAD,2024-06-08 11:33:57,15.08845771,0.0001077,53.2153,223.8286,82.2867,277.8247,0.00016868,2.398e-05,0.0,0 STARLINK-4647,1 53608U 22104W   24160.48192064  .00002398  00000-0  16868-3 0  9992,2 53608  53.2153 223.8286 0001077  82.2867 277.8247 15.08845771 99137,6917.863,95.437,540.473,538.983,0.0
53608.0,STARLINK-4647,PAYLOAD,2024-06-08 21:06:16,15.08855614,0.0001151,53.2157,222.0437,66.6973,293.414,0.00021695,3.168e-05,0.0,0 STARLINK-4647,1 53608U 22104W   24160.87935345  .00003168  00000-0  21695-3 0  9992,2 53608  53.2157 222.0437 0001151  66.6973 293.4140 15.08855614 98623,6917.833,95.437,540.494,538.901,0.0
53608.0,STARLINK-4647,PAYLOAD,2024-06-09 13:00:08,15.08834934,0.0001279,53.2151,219.0717,74.9249,285.1885,-3.9826e-06,-3.51e-06,0.0,0 STARLINK-4647,1 53608U 22104W   24161.54176572 -.00000351  00000-0 -39826-5 0  9996,2 53608  53.2151 219.0717 0001279  74.9249 285.1885 15.08834934 98720,6917.896,95.438,540.646,538.876,0.0
53608.0,STARLINK-4647,PAYLOAD,2024-06-09 20:57:04,15.08842355,0.0001282,53.2154,217.5851,74.5346,285.5788,0.00014569,2.032e-05,0.0,0 STARLINK-4647,1 53608U 22104W   24161.87296413  .00002032  00000-0  14569-3 0  9990,2 53608  53.2154 217.5851 0001282  74.5346 285.5788 15.08842355 99344,6917.873,95.437,540.625,538.851,0.0
53608.0,STARLINK-4647,PAYLOAD,2024-06-10 11:15:32,15.08842885,0.0001222,53.2144,214.9091,72.46,287.6525,0.00053547,8.245e-05,0.0,0 STARLINK-4647,1 53608U 22104W   24162.46912637  .00008245  00000-0  53547-3 0  9990,2 53608  53.2144 214.9091 0001222  72.4600 287.6525 15.08842885 99434,6917.872,95.437,540.582,538.891,0.0
53608.0,STARLINK-4647,PAYLOAD,2024-06-10 20:47:51,15.08853004,0.0001261,53.2144,213.1247,71.901,288.2119,0.00065322,0.00010127,0.0,0 STARLINK-4647,1 53608U 22104W   24162.86656381  .00010127  00000-0  65322-3 0  9991,2 53608  53.2144 213.1247 0001261  71.9010 288.2119 15.08853004 98924,6917.841,95.437,540.578,538.833,0.0
53608.0,STARLINK-4647,PAYLOAD,2024-06-11 09:30:56,15.08846214,0.0001426,53.2156,210.7424,90.228,269.8876,0.00027047,4.02e-05,0.0,0 STARLINK-4647,1 53608U 22104W   24163.39648405  .00004020  00000-0  27047-3 0  9995,2 53608  53.2156 210.7424 0001426  90.2280 269.8876 15.08846214 99575,6917.861,95.437,540.713,538.74,0.0
53608.0,STARLINK-4647,PAYLOAD,2024-06-12 03:00:10,15.08838305,0.0001289,53.2147,207.4749,78.331,281.7826,4.5234e-05,4.32e-06,0.0,0 STARLINK-4647,1 53608U 22104W   24164.12512641  .00000432  00000-0  45234-4 0  9991,2 53608  53.2147 207.4749 0001289  78.3310 281.7826 15.08838305 99116,6917.886,95.438,540.642,538.859,0.0
